NORAD_CAT_ID,OBJECT_NAME,OBJECT_TYPE,EPOCH,MEAN_MOTION,ECCENTRICITY,INCLINATION,RA_OF_ASC_NODE,ARG_OF_PERICENTER,MEAN_ANOMALY,BSTAR,MEAN_MOTION_DOT,MEAN_MOTION_DDOT,TLE_LINE0,TLE_LINE1,TLE_LINE2,SEMIMAJOR_AXIS,PERIOD,APOGEE,PERIGEE,DECAYED
52607.0,STARLINK-3947,PAYLOAD,2023-10-10 00:41:06,15.08833233,0.0001614,53.2172,282.0586,103.7124,256.4048,-4.3998e-06,-3.58e-06,0.0,0 STARLINK-3947,1 52607U 22052K   23283.02855313 -.00000358  00000-0 -43998-5 0  9992,2 52607  53.2172 282.0586 0001614 103.7124 256.4048 15.08833233 78058,6917.901,95.438,540.883,538.65,0.0
52607.0,STARLINK-3947,PAYLOAD,2023-10-10 05:27:16,15.08841235,0.0001712,53.2164,281.1671,107.0851,253.0328,0.00010958,1.456e-05,0.0,0 STARLINK-3947,1 52607U 22052K   23283.22726944  .00001456  00000-0  10958-3 0  9997,2 52607  53.2164 281.1671 0001712 107.0851 253.0328 15.08841235 78085,6917.877,95.437,540.926,538.557,0.0
52607.0,STARLINK-3947,PAYLOAD,2023-10-10 16:34:57,15.08843104,0.0001565,53.2162,279.0875,102.0709,258.0459,2.2266e-05,6.6e-07,0.0,0 STARLINK-3947,1 52607U 22052K   23283.69094840  .00000066  00000-0  22266-4 0  9993,2 52607  53.2162 279.0875 0001565 102.0709 258.0459 15.08843104 77770,6917.871,95.437,540.819,538.653,0.0
52607.0,STARLINK-3947,PAYLOAD,2023-10-11 00:31:54,15.08824546,0.0001609,53.2165,277.6007,102.3639,257.7533,-0.00027061,-4.59e-05,0.0,0 STARLINK-3947,1 52607U 22052K   23284.02215703 -.00004590  00000-0 -27061-3 0  9999,2 52607  53.2165 277.6007 0001609 102.3639 257.7533 15.08824546 78205,6917.928,95.439,540.906,538.68,0.0
52607.0,STARLINK-3947,PAYLOAD,2023-10-11 06:53:26,15.08831124,0.000163,53.2162,276.4118,106.2292,253.888,-6.6711e-05,-1.349e-05,0.0,0 STARLINK-3947,1 52607U 22052K   23284.28711684 -.00001349  00000-0 -66711-4 0  9991,2 52607  53.2162 276.4118 0001630 106.2292 253.8880 15.08831124 77867,6917.908,95.438,540.9,538.645,0.0
52607.0,STARLINK-3947,PAYLOAD,2023-10-11 16:25:45,15.08836592,0.0001578,53.2161,274.627,101.8931,258.2238,0.00012112,1.64e-05,0.0,0 STARLINK-3947,1 52607U 22052K   23284.68455803  .00001640  00000-0  12112-3 0  9990,2 52607  53.2161 274.6270 0001578 101.8931 258.2238 15.08836592 78307,6917.891,95.438,540.847,538.664,0.0
52607.0,STARLINK-3947,PAYLOAD,2023-10-12 06:44:14,15.08846169,0.0001587,53.2159,271.9501,99.734,260.3831,0.00074033,0.00011516,0.0,0 STARLINK-3947,1 52607U 22052K   23285.28072140  .00011516  00000-0  74033-3 0  9999,2 52607  53.2159 271.9501 0001587  99.7340 260.3831 15.08846169 78012,6917.862,95.437,540.824,538.629,0.0
52607.0,STARLINK-3947,PAYLOAD,2023-10-12 16:16:32,15.08851594,0.0001577,53.2155,270.1643,86.6652,273.4521,0.00063141,9.778e-05,0.0,0 STARLINK-3947,1 52607U 22052K   23285.67815962  .00009778  00000-0  63141-3 0  9994,2 52607  53.2155 270.1643 0001577  86.6652 273.4521 15.08851594 78071,6917.845,95.437,540.801,538.619,0.0
52607.0,STARLINK-3947,PAYLOAD,2023-10-13 04:59:37,15.08853077,0.0001507,53.2155,267.786,92.2954,267.8211,0.00048529,7.447e-05,0.0,0 STARLINK-3947,1 52607U 22052K   23286.20807734  .00007447  00000-0  48529-3 0  9996,2 52607  53.2155 267.7860 0001507  92.2954 267.8211 15.08853077 78537,6917.84,95.437,540.748,538.663,0.0
52607.0,STARLINK-3947,PAYLOAD,2023-10-13 08:10:23,15.08861356,0.0001554,53.2155,267.1913,91.5774,268.5396,0.00085053,0.00013282,0.0,0 STARLINK-3947,1 52607U 22052K   23286.34055524  .00013282  00000-0  85053-3 0  9990,2 52607  53.2155 267.1913 0001554  91.5774 268.5396 15.08861356 78175,6917.815,95.436,540.755,538.605,0.0
52607.0,STARLINK-3947,PAYLOAD,2023-10-13 16:07:20,15.08845536,0.0001962,53.2157,265.7035,83.219,276.9025,0.00029891,4.473e-05,0.0,0 STARLINK-3947,1 52607U 22052K   23286.67175953  .00004473  00000-0  29891-3 0  9995,2 52607  53.2157 265.7035 0001962  83.2190 276.9025 15.08845536 78601,6917.863,95.437,541.086,538.371,0.0
52607.0,STARLINK-3947,PAYLOAD,2023-10-14 04:50:24,15.08855358,0.0001619,53.2153,263.3237,89.0885,271.0293,0.00072867,0.00011333,0.0,0 STARLINK-3947,1 52607U 22052K   23287.20167550  .00011333  00000-0  72867-3 0  9993,2 52607  53.2153 263.3237 0001619  89.0885 271.0293 15.08855358 78302,6917.833,95.437,540.818,538.578,0.0
52607.0,STARLINK-3947,PAYLOAD,2023-10-14 15:58:06,15.08846683,0.000182,53.2171,261.2423,90.1027,270.0174,0.00048368,7.419e-05,0.0,0 STARLINK-3947,1 52607U 22052K   23287.66535738  .00007419  00000-0  48368-3 0  9999,2 52607  53.2171 261.2423 0001820  90.1027 270.0174 15.08846683 78758,6917.86,95.437,540.984,538.466,0.0
52607.0,STARLINK-3947,PAYLOAD,2023-10-14 22:19:39,15.08838116,0.0002149,53.2185,260.0524,99.8723,260.2512,0.00024238,3.571e-05,0.0,0 STARLINK-3947,1 52607U 22052K   23287.93032040  .00003571  00000-0  24238-3 0  9992,2 52607  53.2185 260.0524 0002149  99.8723 260.2512 15.08838116 78418,6917.886,95.438,541.238,538.264,0.0
52607.0,STARLINK-3947,PAYLOAD,2023-10-15 03:05:49,15.08837288,0.000129,53.2164,259.1615,98.6374,261.4764,0.00038416,5.831e-05,0.0,0 STARLINK-3947,1 52607U 22052K   23288.12904016  .00005831  00000-0  38416-3 0  9999,2 52607  53.2164 259.1615 0001290  98.6374 261.4764 15.08837288 78826,6917.889,95.438,540.646,538.861,0.0
52607.0,STARLINK-3947,PAYLOAD,2023-10-15 04:41:12,15.08830246,0.000134,53.2164,258.8643,97.7764,262.338,0.0015124,0.00023857,0.0,0 STARLINK-3947,1 52607U 22052K   23288.19528270  .00023857  00000-0  15124-2 0  9998,2 52607  53.2164 258.8643 0001340  97.7764 262.3380 15.08830246 78452,6917.91,95.438,540.702,538.848,0.0
52607.0,STARLINK-3947,PAYLOAD,2023-10-15 22:10:27,15.08844587,0.0001428,53.2171,255.5928,102.3826,257.7326,0.0010376,0.00016266,0.0,0 STARLINK-3947,1 52607U 22052K   23288.92392595  .00016266  00000-0  10376-2 0  9998,2 52607  53.2171 255.5928 0001428 102.3826 257.7326 15.08844587 78562,6917.866,95.437,540.719,538.743,0.0
52607.0,STARLINK-3947,PAYLOAD,2023-10-16 07:42:45,15.08862551,0.0001381,53.2164,253.8093,95.5957,264.5193,0.0012027,0.00018917,0.0,0 STARLINK-3947,1 52607U 22052K   23289.32136152  .00018917  00000-0  12027-2 0  9998,2 52607  53.2164 253.8093 0001381  95.5957 264.5193 15.08862551 79003,6917.811,95.436,540.632,538.721,0.0
52607.0,STARLINK-3947,PAYLOAD,2023-10-16 22:01:13,15.08853953,0.0001654,53.2156,251.1279,97.3502,262.7678,0.00024364,3.593e-05,0.0,0 STARLINK-3947,1 52607U 22052K   23289.91752212  .00003593  00000-0  24364-3 0  9996,2 52607  53.2156 251.1279 0001654  97.3502 262.7678 15.08853953 78711,6917.838,95.437,540.847,538.559,0.0
52607.0,STARLINK-3947,PAYLOAD,2023-10-18 02:38:10,15.08847967,0.0001523,53.2167,245.775,107.1425,252.9734,0.00021191,3.087e-05,0.0,0 STARLINK-3947,1 52607U 22052K   23291.10984066  .00003087  00000-0  21191-3 0  9997,2 52607  53.2167 245.7750 0001523 107.1425 252.9734 15.08847967 79279,6917.856,95.437,540.775,538.667,0.0
52607.0,STARLINK-3947,PAYLOAD,2023-10-18 13:45:52,15.08849034,0.0001212,53.2167,243.7005,93.8797,266.2334,0.00020668,3.004e-05,0.0,0 STARLINK-3947,1 52607U 22052K   23291.57352006  .00003004  00000-0  20668-3 0  9998,2 52607  53.2167 243.7005 0001212  93.8797 266.2334 15.08849034 78964,6917.853,95.437,540.556,538.879,0.0
52607.0,STARLINK-3947,PAYLOAD,2023-10-19 04:04:20,15.0884983,0.0001233,53.2163,241.0236,92.8757,267.2376,0.00027221,4.048e-05,0.0,0 STARLINK-3947,1 52607U 22052K   23292.16968058  .00004048  00000-0  27221-3 0  9995,2 52607  53.2163 241.0236 0001233  92.8757 267.2376 15.08849830 79439,6917.85,95.437,540.568,538.862,0.0
52607.0,STARLINK-3947,PAYLOAD,2023-10-19 05:39:43,15.08851399,0.0001348,53.2168,240.7267,97.7884,262.3261,0.00028672,4.28e-05,0.0,0 STARLINK-3947,1 52607U 22052K   23292.23591962  .00004280  00000-0  28672-3 0  9998,2 52607  53.2168 240.7267 0001348  97.7884 262.3261 15.08851399 79067,6917.846,95.437,540.643,538.778,0.0
52607.0,STARLINK-3947,PAYLOAD,2023-10-20 02:19:44,15.08845377,0.0001584,53.2175,236.8614,107.1507,252.9658,0.00010101,1.32e-05,0.0,0 STARLINK-3947,1 52607U 22052K   23293.09704171  .00001320  00000-0  10101-3 0  9991,2 52607  53.2175 236.8614 0001584 107.1507 252.9658 15.08845377 79577,6917.864,95.437,540.825,538.633,0.0
52607.0,STARLINK-3947,PAYLOAD,2023-10-20 05:30:30,15.08845091,0.0001671,53.2182,236.2685,73.7027,286.4149,0.00011412,1.529e-05,0.0,0 STARLINK-3947,1 52607U 22052K   23293.22952327  .00001529  00000-0  11412-3 0  9991,2 52607  53.2182 236.2685 0001671  73.7027 286.4149 15.08845091 79210,6917.865,95.437,540.886,538.574,0.0
52607.0,STARLINK-3947,PAYLOAD,2023-10-20 19:48:59,15.08828267,0.0001415,53.2173,233.5891,79.9586,280.1566,1.225e-05,-9.3e-07,0.0,0 STARLINK-3947,1 52607U 22052K   23293.82569378 -.00000093  00000-0  12250-4 0  9995,2 52607  53.2173 233.5891 0001415  79.9586 280.1566 15.08828267 79684,6917.916,95.438,540.76,538.802,0.0
52607.0,STARLINK-3947,PAYLOAD,2023-10-21 05:21:18,15.08842391,0.0001542,53.2171,231.8046,83.108,277.0088,7.2531e-05,8.67e-06,0.0,0 STARLINK-3947,1 52607U 22052K   23294.22312927  .00000867  00000-0  72531-4 0  9992,2 52607  53.2171 231.8046 0001542  83.1080 277.0088 15.08842391 79747,6917.873,95.437,540.805,538.671,0.0
52607.0,STARLINK-3947,PAYLOAD,2023-10-21 13:18:13,15.08845843,0.000146,53.2174,230.3176,96.2843,263.8315,0.00011942,1.613e-05,0.0,0 STARLINK-3947,1 52607U 22052K   23294.55432700  .00001613  00000-0  11942-3 0  9998,2 52607  53.2174 230.3176 0001460  96.2843 263.8315 15.08845843 79414,6917.863,95.437,540.738,538.718,0.0
52607.0,STARLINK-3947,PAYLOAD,2023-10-21 19:39:46,15.08851749,0.0001506,53.2168,229.1279,95.2899,264.8265,0.00033088,4.984e-05,0.0,0 STARLINK-3947,1 52607U 22052K   23294.81928556  .00004984  00000-0  33088-3 0  9995,2 52607  53.2168 229.1279 0001506  95.2899 264.8265 15.08851749 79459,6917.844,95.437,540.751,538.668,0.0
52607.0,STARLINK-3947,PAYLOAD,2023-10-22 02:01:18,15.08865554,0.000162,53.2164,227.9394,96.3376,263.7801,0.00092528,0.00014479,0.0,0 STARLINK-3947,1 52607U 22052K   23295.08424116  .00014479  00000-0  92528-3 0  9992,2 52607  53.2164 227.9394 0001620  96.3376 263.7801 15.08865554 79877,6917.802,95.436,540.788,538.547,0.0
